station_code,station_name,blk_no,building,latitude,longitude,postal,road_name,searchval,type
NS1,Jurong East,10,JURONG EAST MRT STATION,1.33315261987297,103.742286544006,609690,JURONG EAST STREET 12,JURONG EAST MRT STATION,mrt
NS2,Bukit Batok,10,BUKIT BATOK MRT STATION,1.34903410858812,103.749566764129,659958,BUKIT BATOK CENTRAL,BUKIT BATOK MRT STATION,mrt
NS3,Bukit Gombak,802,BUKIT GOMBAK MRT STATION,1.35861159094194,103.751790910733,659083,BUKIT BATOK WEST AVENUE 5,BUKIT GOMBAK MRT STATION,mrt
NS4,Choa Chu Kang,10,CHOA CHU KANG MRT STATION,1.38536316540226,103.744370779756,689810,CHOA CHU KANG AVENUE 4,CHOA CHU KANG MRT STATION,mrt
NS5,Yew Tee,61,YEW TEE MRT STATION,1.39753501762625,103.747405114336,689715,CHOA CHU KANG DRIVE,YEW TEE MRT STATION,mrt
NS7,Kranji,960,KRANJI MRT STATION,1.42508698073649,103.762137459497,738702,WOODLANDS ROAD,KRANJI MRT STATION,mrt
NS8,Marsiling,71,MARSILING MRT STATION,1.4325211485503,103.774074641403,739044,WOODLANDS AVENUE 3,MARSILING MRT STATION,mrt
NS9,Woodlands,11,WOODLANDS MRT STATION,1.43606698186149,103.787930806962,737736,WOODLANDS SQUARE,WOODLANDS MRT STATION,mrt
NS10,Admiralty,70,ADMIRALTY MRT STATION,1.44058500086852,103.800988000403,738344,WOODLANDS AVENUE 7,ADMIRALTY MRT STATION,mrt
NS11,Sembawang,11,SEMBAWANG MRT STATION,1.44905082158503,103.820046140211,759775,CANBERRA ROAD,SEMBAWANG MRT STATION,mrt
NS13,Yishun,301,YISHUN MRT STATION,1.42944308039361,103.83500504643,769093,YISHUN AVENUE 2,YISHUN MRT STATION,mrt
NS14,Khatib,201,KHATIB MRT STATION,1.41738337009568,103.832979908243,769092,YISHUN AVENUE 2,KHATIB MRT STATION,mrt
NS15,Yio Chu Kang,3000,YIO CHU KANG MRT STATION,1.38175588659406,103.84494728206,569813,ANG MO KIO AVENUE 8,YIO CHU KANG MRT STATION,mrt
NS16,Ang Mo Kio,2450,ANG MO KIO MRT STATION,1.36993317536445,103.849558130943,569811,ANG MO KIO AVENUE 8,ANG MO KIO MRT STATION,mrt
NS17,Bishan,200,BISHAN MRT STATION,1.3508389878474,103.848143964542,579827,BISHAN ROAD,BISHAN MRT STATION,mrt
NS18,Braddell,377,BRADDELL MRT STATION,1.34046900102774,103.846799083148,319756,LORONG 1 TOA PAYOH,BRADDELL MRT STATION,mrt
NS19,Toa Payoh,510,TOA PAYOH MRT STATION,1.33262898752974,103.847501764246,319398,LORONG 6 TOA PAYOH,TOA PAYOH MRT STATION,mrt
NS20,Novena,250,NOVENA MRT STATION,1.32044079120159,103.843825618748,307642,THOMSON ROAD,NOVENA MRT STATION,mrt
NS21,Newton,49,NEWTON MRT STATION,1.31232009946014,103.837985299521,228234,SCOTTS ROAD,NEWTON MRT STATION,mrt
NS22,Orchard,437,ORCHARD MRT STATION,1.30397987430726,103.832245299857,238878,ORCHARD ROAD,ORCHARD MRT STATION,mrt
NS23,Somerset,1,SOMERSET MRT STATION,1.30026416739007,103.839085753124,238162,SOMERSET ROAD,SOMERSET MRT STATION,mrt
NS24,Dhoby Ghaut,11,DHOBY GHAUT MRT STATION,1.29870130619238,103.846115155028,238826,ORCHARD ROAD,DHOBY GHAUT MRT STATION,mrt
NS25,City Hall,150,CITY HALL MRT STATION,1.29293624242153,103.852585892041,179100,NORTH BRIDGE ROAD,CITY HALL MRT STATION,mrt
NS26,Raffles Place,5,RAFFLES PLACE MRT STATION,1.2841256104366,103.851461712342,048618,RAFFLES PLACE,RAFFLES PLACE MRT STATION,mrt
NS27,Marina Bay,21,MARINA BAY MRT STATION,1.27642735449345,103.854597777026,018925,PARK STREET,MARINA BAY MRT STATION,mrt
NS28,Marina South Pier,33,MARINA SOUTH PIER MRT STATION,1.2710270361201,103.862447515736,018948,MARINA COASTAL DRIVE,MARINA SOUTH PIER MRT STATION,mrt
EW1,Pasir Ris,10,PASIR RIS MRT STATION,1.37304321206227,103.949284605816,519634,PASIR RIS CENTRAL,PASIR RIS MRT STATION,mrt
EW2,Tampines,20,TAMPINES MRT STATION,1.35330153265954,103.945144689278,529538,TAMPINES CENTRAL 1,TAMPINES MRT STATION,mrt
EW3,Simei,30,SIMEI MRT STATION,1.34320289478118,103.953371694102,529888,SIMEI STREET 3,SIMEI MRT STATION,mrt
EW4,Tanah Merah,920,TANAH MERAH MRT STATION,1.32718775009106,103.946348136559,467356,NEW UPPER CHANGI ROAD,TANAH MERAH MRT STATION,mrt
EW5,Bedok,315,BEDOK MRT STATION,1.32397996868161,103.929984495066,467347,NEW UPPER CHANGI ROAD,BEDOK MRT STATION,mrt
EW6,Kembangan,55,KEMBANGAN MRT STATION,1.32103824851416,103.912949388089,416551,SIMS AVENUE EAST,KEMBANGAN MRT STATION,mrt
EW7,Eunos,30,EUNOS MRT STATION,1.31978354779207,103.903225812967,409423,EUNOS CRESCENT,EUNOS MRT STATION,mrt
EW8,Paya Lebar,30,PAYA LEBAR MRT STATION,1.31811208187582,103.893060355199,409006,PAYA LEBAR ROAD,PAYA LEBAR MRT STATION,mrt
EW9,Aljunied,81,ALJUNIED MRT STATION,1.31643261181573,103.882906044385,388310,LORONG 25 GEYLANG,ALJUNIED MRT STATION,mrt
EW10,Kallang,5,KALLANG MRT STATION,1.31148890998822,103.871386541754,387405,SIMS AVENUE,KALLANG MRT STATION,mrt
EW11,Lavender,50,LAVENDER MRT STATION,1.30737750842617,103.862767633612,208699,KALLANG ROAD,LAVENDER MRT STATION,mrt
EW12,Bugis,220,BUGIS MRT STATION,1.30046507606683,103.855706414086,188022,VICTORIA STREET,BUGIS MRT STATION,mrt
EW13,City Hall,150,CITY HALL MRT STATION,1.29293624242153,103.852585892041,179100,NORTH BRIDGE ROAD,CITY HALL MRT STATION,mrt
EW14,Raffles Place,5,RAFFLES PLACE MRT STATION,1.2841256104366,103.851461712342,048618,RAFFLES PLACE,RAFFLES PLACE MRT STATION,mrt
EW15,Tanjong Pagar,120,TANJONG PAGAR MRT STATION,1.2765613173725,103.845725186759,069119,MAXWELL ROAD,TANJONG PAGAR MRT STATION,mrt
EW16,Outram Park,300,OUTRAM PARK MRT STATION,1.27973970679336,103.839513521005,059816,EU TONG SEN STREET,OUTRAM PARK MRT STATION,mrt
EW17,Tiong Bahru,300,TIONG BAHRU MRT STATION,1.28610253615777,103.827445112419,168731,TIONG BAHRU ROAD,TIONG BAHRU MRT STATION,mrt
EW18,Redhill,920,REDHILL MRT STATION,1.28963453358141,103.816740969874,158792,TIONG BAHRU ROAD,REDHILL MRT STATION,mrt
EW19,Queenstown,301,QUEENSTOWN MRT STATION,1.29455085184934,103.806077155982,149729,COMMONWEALTH AVENUE,QUEENSTOWN MRT STATION,mrt
EW20,Commonwealth,375,COMMONWEALTH MRT STATION,1.30250853704708,103.798226128263,149735,COMMONWEALTH AVENUE,COMMONWEALTH MRT STATION,mrt
EW21,Buona Vista,100,BUONA VISTA MRT STATION,1.30722370820444,103.790253514502,139345,NORTH BUONA VISTA ROAD,BUONA VISTA MRT STATION,mrt
EW22,Dover,200,DOVER MRT STATION,1.31140529320966,103.778637841909,138677,COMMONWEALTH AVENUE WEST,DOVER MRT STATION,mrt
EW23,Clementi,3150,CLEMENTI MRT STATION,1.3152012635208,103.765182446647,129580,COMMONWEALTH AVENUE WEST,CLEMENTI MRT STATION,mrt
EW24,Jurong East,10,JURONG EAST MRT STATION,1.33315261987297,103.742286544006,609690,JURONG EAST STREET 12,JURONG EAST MRT STATION,mrt
EW25,Chinese Garden,151,CHINESE GARDEN MRT STATION,1.34235282081403,103.732596738363,609959,BOON LAY WAY,CHINESE GARDEN MRT STATION,mrt
EW26,Lakeside,201,LAKESIDE MRT STATION,1.34425913054043,103.720949076305,649845,BOON LAY WAY,LAKESIDE MRT STATION,mrt
EW27,Boon Lay,301,BOON LAY MRT STATION,1.33860405469846,103.706064622772,649846,BOON LAY WAY,BOON LAY MRT STATION,mrt
EW28,Pioneer,31,PIONEER MRT STATION,1.33758688240768,103.697321513018,648310,JURONG WEST STREET 63,PIONEER MRT STATION,mrt
EW29,Joo Koon,91,JOO KOON MRT STATION,1.32771717334029,103.678375143838,629116,JOO KOON CIRCLE,JOO KOON MRT STATION,mrt
EW30,Gul Circle,7A,GUL CIRCLE MRT STATION,1.319470868174,103.660530403418,637288,TUAS ROAD,GUL CIRCLE MRT STATION,mrt
EW31,Tuas Crescent,90,TUAS CRESCENT MRT STATION,1.32102695188066,103.649078232635,639608,PIONEER ROAD,TUAS CRESCENT MRT STATION,mrt
EW32,Tuas West Road,131,TUAS WEST ROAD MRT STATION,1.3299890890646,103.63961405628,639609,PIONEER ROAD,TUAS WEST ROAD MRT STATION,mrt
EW33,Tuas Link,20,TUAS LINK MRT STATION,1.34088242451108,103.636991425128,638418,TUAS WEST DRIVE,TUAS LINK MRT STATION,mrt
CG1,Expo,2,EXPO MRT STATION,1.33538252614957,103.962374747451,485985,EXPO DRIVE,EXPO MRT STATION,mrt
CG2,Changi Airport,70,CHANGI AIRPORT MRT STATION,1.35747897447696,103.98788356959,819661,AIRPORT BOULEVARD,CHANGI AIRPORT MRT STATION,mrt
NE1,HarbourFront,81,HARBOURFRONT MRT STATION,1.26538938402277,103.821530156823,098867,TELOK BLANGAH ROAD,HARBOURFRONT MRT STATION,mrt
NE3,Outram Park,300,OUTRAM PARK MRT STATION,1.27973970679336,103.839513521005,059816,EU TONG SEN STREET,OUTRAM PARK MRT STATION,mrt
NE4,Chinatown,91,CHINATOWN MRT STATION,1.28422391919087,103.845143798953,058362,UPPER CROSS STREET,CHINATOWN MRT STATION,mrt
NE5,Clarke Quay,10,CLARKE QUAY MRT STATION,1.28838602407589,103.846555209694,059815,EU TONG SEN STREET,CLARKE QUAY MRT STATION,mrt
NE6,Dhoby Ghaut,11,DHOBY GHAUT MRT STATION,1.29870130619238,103.846115155028,238826,ORCHARD ROAD,DHOBY GHAUT MRT STATION,mrt
NE7,Little India,60,LITTLE INDIA MRT STATION,1.30680002560554,103.84964696645,229900,BUKIT TIMAH ROAD,LITTLE INDIA MRT STATION,mrt
NE8,Farrer Park,250,FARRER PARK MRT STATION,1.31190557325777,103.853477716509,218703,RACE COURSE ROAD,FARRER PARK MRT STATION,mrt
NE9,Boon Keng,900,BOON KENG MRT STATION,1.31933570922515,103.861569454156,328260,SERANGOON ROAD,BOON KENG MRT STATION,mrt
NE10,Potong Pasir,55,POTONG PASIR MRT STATION,1.33137952497763,103.869055665485,347694,UPPER SERANGOON ROAD,POTONG PASIR MRT STATION,mrt
NE11,Woodleigh,400,WOODLEIGH MRT STATION,1.33919004519393,103.87081830915,347695,UPPER SERANGOON ROAD,WOODLEIGH MRT STATION,mrt
NE12,Serangoon,600,SERANGOON MRT STATION,1.34970787487358,103.873574846893,534801,UPPER SERANGOON ROAD,SERANGOON MRT STATION,mrt
NE13,Kovan,900,KOVAN MRT STATION,1.36017917065238,103.885064856353,534799,UPPER SERANGOON ROAD,KOVAN MRT STATION,mrt
NE14,Hougang,80,HOUGANG MRT STATION,1.37129229221246,103.892380518741,538758,HOUGANG CENTRAL,HOUGANG MRT STATION,mrt
NE15,Buangkok,10,BUANGKOK MRT STATION,1.38287785835055,103.893121564391,545061,SENGKANG CENTRAL,BUANGKOK MRT STATION,mrt
NE16,Sengkang,5,SENGKANG MRT STATION,1.39169462601523,103.895484694279,545062,SENGKANG SQUARE,SENGKANG MRT STATION,mrt
NE17,Punggol,70,PUNGGOL MRT STATION,1.40454672748107,103.902072638825,828868,PUNGGOL CENTRAL,PUNGGOL MRT STATION,mrt
CC1,Dhoby Ghaut,11,DHOBY GHAUT MRT STATION,1.29870130619238,103.846115155028,238826,ORCHARD ROAD,DHOBY GHAUT MRT STATION,mrt
CC2,Bras Basah,65,BRAS BASAH MRT STATION,1.29686168649658,103.850667371637,189561,BRAS BASAH ROAD,BRAS BASAH MRT STATION,mrt
CC3,Esplanade,90,ESPLANADE MRT STATION,1.29365772453863,103.855081226245,189562,BRAS BASAH ROAD,ESPLANADE MRT STATION,mrt
CC4,Promenade,2,PROMENADE MRT STATION,1.29399856913986,103.860350000195,039193,TEMASEK AVENUE,PROMENADE MRT STATION,mrt
CC5,Nicoll Highway,20,NICOLL HIGHWAY MRT STATION,1.29976683498024,103.863637018754,038970,REPUBLIC AVENUE,NICOLL HIGHWAY MRT STATION,mrt
CC6,Stadium,3,STADIUM MRT STATION,1.30281246847074,103.875337711089,397692,STADIUM WALK,STADIUM MRT STATION,mrt
CC7,Mountbatten,301,MOUNTBATTEN MRT STATION,1.30620190525333,103.882528081052,398006,MOUNTBATTEN ROAD,MOUNTBATTEN MRT STATION,mrt
CC8,Dakota,201,DAKOTA MRT STATION,1.30854798388123,103.889064718377,397973,OLD AIRPORT ROAD,DAKOTA MRT STATION,mrt
CC9,Paya Lebar,30,PAYA LEBAR MRT STATION,1.31811208187582,103.893060355199,409006,PAYA LEBAR ROAD,PAYA LEBAR MRT STATION,mrt
CC10,MacPherson,10,MACPHERSON MRT STATION,1.32615024293134,103.889298596024,378956,CIRCUIT LINK,MACPHERSON MRT STATION,mrt
CC11,Tai Seng,33,TAI SENG MRT STATION,1.33510208507523,103.88843301279,534803,UPPER PAYA LEBAR ROAD,TAI SENG MRT STATION,mrt
CC12,Bartley,90,BARTLEY MRT STATION,1.34250117805246,103.880177899184,539788,BARTLEY ROAD,BARTLEY MRT STATION,mrt
CC13,Serangoon,600,SERANGOON MRT STATION,1.34970787487358,103.873574846893,534801,UPPER SERANGOON ROAD,SERANGOON MRT STATION,mrt
CC14,Lorong Chuan,150,LORONG CHUAN MRT STATION,1.35161217074559,103.864151938651,554533,SERANGOON AVENUE 3,LORONG CHUAN MRT STATION,mrt
CC15,Bishan,200,BISHAN MRT STATION,1.3508389878474,103.848143964542,579827,BISHAN ROAD,BISHAN MRT STATION,mrt
CC16,Marymount,60,MARYMOUNT MRT STATION,1.34870726345102,103.839423132332,573993,MARYMOUNT ROAD,MARYMOUNT MRT STATION,mrt
CC17,Caldecott,38,CALDECOTT MRT STATION,1.3376745081562,103.839529820338,298113,TOA PAYOH RISE,CALDECOTT MRT STATION,mrt
CC19,Botanic Gardens,100,BOTANIC GARDENS MRT STATION,1.32211373558878,103.814984510627,257494,CLUNY PARK ROAD,BOTANIC GARDENS MRT STATION,mrt
CC20,Farrer Road,71,FARRER ROAD MRT STATION,1.31743915158969,103.807379214161,268857,FARRER ROAD,FARRER ROAD MRT STATION,mrt
CC21,Holland Village,200,HOLLAND VILLAGE MRT STATION,1.312240296316,103.796399122407,278995,HOLLAND AVENUE,HOLLAND VILLAGE MRT STATION,mrt
CC22,Buona Vista,100,BUONA VISTA MRT STATION,1.30722370820444,103.790253514502,139345,NORTH BUONA VISTA ROAD,BUONA VISTA MRT STATION,mrt
CC23,one-north,9,ONE-NORTH MRT STATION,1.29975987849417,103.78745750797,138647,AYER RAJAH AVENUE,ONE-NORTH MRT STATION,mrt
CC24,Kent Ridge,301,KENT RIDGE MRT STATION,1.29353698622128,103.784572366595,118177,SOUTH BUONA VISTA ROAD,KENT RIDGE MRT STATION,mrt
CC25,Haw Par Villa,270,HAW PAR VILLA MRT STATION,1.28257135827237,103.781752724792,117396,PASIR PANJANG ROAD,HAW PAR VILLA MRT STATION,mrt
CC26,Pasir Panjang,119,PASIR PANJANG MRT STATION,1.27621352233768,103.791350313288,117424,PASIR PANJANG ROAD,PASIR PANJANG MRT STATION,mrt
CC27,Labrador Park,701,LABRADOR PARK MRT STATION,1.27225417749657,103.802631578766,109029,TELOK BLANGAH ROAD,LABRADOR PARK MRT STATION,mrt
CC28,Telok Blangah,463,TELOK BLANGAH MRT STATION,1.27070647717764,103.809761611219,109028,TELOK BLANGAH ROAD,TELOK BLANGAH MRT STATION,mrt
CC29,HarbourFront,81,HARBOURFRONT MRT STATION,1.26538938402277,103.821530156823,098867,TELOK BLANGAH ROAD,HARBOURFRONT MRT STATION,mrt
CE1,Bayfront,11,BAYFRONT MRT STATION,1.2818737887921,103.859079764874,018957,BAYFRONT AVENUE,BAYFRONT MRT STATION,mrt
CE2,Marina Bay,21,MARINA BAY MRT STATION,1.27642735449345,103.854597777026,018925,PARK STREET,MARINA BAY MRT STATION,mrt
DT1,Bukit Panjang,950,BUKIT PANJANG MRT STATION,1.37900211641038,103.761535114929,678213,UPPER BUKIT TIMAH ROAD,BUKIT PANJANG MRT STATION,mrt
DT2,Cashew,1,CASHEW MRT STATION,1.36981544925554,103.76443921414,679696,CASHEW ROAD,CASHEW MRT STATION,mrt
DT3,Hillview,510,HILLVIEW MRT STATION,1.3623448680356,103.767418254007,678211,UPPER BUKIT TIMAH ROAD,HILLVIEW MRT STATION,mrt
DT5,Beauty World,101,BEAUTY WORLD MRT STATION,1.34122317558553,103.775794285083,588216,UPPER BUKIT TIMAH ROAD,BEAUTY WORLD MRT STATION,mrt
DT6,King Albert Park,2,KING ALBERT PARK MRT STATION,1.33566276229995,103.783399113418,599987,BLACKMORE DRIVE,KING ALBERT PARK MRT STATION,mrt
DT7,Sixth Avenue,777,SIXTH AVENUE MRT STATION,1.33085764536228,103.796906838288,269784,BUKIT TIMAH ROAD,SIXTH AVENUE MRT STATION,mrt
DT8,Tan Kah Kee,651,TAN KAH KEE MRT STATION,1.325556235199,103.807760304729,266268,BUKIT TIMAH ROAD,TAN KAH KEE MRT STATION,mrt
DT9,Botanic Gardens,100,BOTANIC GARDENS MRT STATION,1.32211373558878,103.814984510627,257494,CLUNY PARK ROAD,BOTANIC GARDENS MRT STATION,mrt
DT10,Stevens,92,STEVENS MRT STATION,1.32006555750627,103.826024401924,257877,STEVENS ROAD,STEVENS MRT STATION,mrt
DT11,Newton,49,NEWTON MRT STATION,1.31232009946014,103.837985299521,228234,SCOTTS ROAD,NEWTON MRT STATION,mrt
DT12,Little India,60,LITTLE INDIA MRT STATION,1.30680002560554,103.84964696645,229900,BUKIT TIMAH ROAD,LITTLE INDIA MRT STATION,mrt
DT13,Rochor,11,ROCHOR MRT STATION,1.30385218527657,103.852769428884,188505,ROCHOR CANAL ROAD,ROCHOR MRT STATION,mrt
DT14,Bugis,220,BUGIS MRT STATION,1.30046507606683,103.855706414086,188022,VICTORIA STREET,BUGIS MRT STATION,mrt
DT15,Promenade,2,PROMENADE MRT STATION,1.29399856913986,103.860350000195,039193,TEMASEK AVENUE,PROMENADE MRT STATION,mrt
DT16,Bayfront,11,BAYFRONT MRT STATION,1.2818737887921,103.859079764874,018957,BAYFRONT AVENUE,BAYFRONT MRT STATION,mrt
DT17,Downtown,15,DOWNTOWN MRT STATION,1.27944619017902,103.852840444471,018969,CENTRAL BOULEVARD,DOWNTOWN MRT STATION,mrt
DT18,Telok Ayer,7,TELOK AYER MRT STATION,1.28206894769397,103.848648781083,048416,CROSS STREET,TELOK AYER MRT STATION,mrt
DT19,Chinatown,91,CHINATOWN MRT STATION,1.28422391919087,103.845143798953,058362,UPPER CROSS STREET,CHINATOWN MRT STATION,mrt
DT20,Fort Canning,170,FORT CANNING MRT STATION,1.29248123652549,103.844331060302,179038,RIVER VALLEY ROAD,FORT CANNING MRT STATION,mrt
DT21,Bencoolen,31,BENCOOLEN MRT STATION,1.29891843369424,103.850353762717,189658,BENCOOLEN STREET,BENCOOLEN MRT STATION,mrt
DT22,Jalan Besar,90,JALAN BESAR MRT STATION,1.30517138780691,103.855295713435,208826,JALAN BESAR,JALAN BESAR MRT STATION,mrt
DT23,Bendemeer,11,BENDEMEER MRT STATION,1.31367252847692,103.862977620945,339356,KALLANG BAHRU,BENDEMEER MRT STATION,mrt
DT24,Geylang Bahru,541,GEYLANG BAHRU MRT STATION,1.32130110228324,103.871622627142,339355,KALLANG BAHRU,GEYLANG BAHRU MRT STATION,mrt
DT25,Mattar,60,MATTAR MRT STATION,1.32687671501337,103.883247509542,379314,MERPATI ROAD,MATTAR MRT STATION,mrt
DT26,MacPherson,10,MACPHERSON MRT STATION,1.32615024293134,103.889298596024,378956,CIRCUIT LINK,MACPHERSON MRT STATION,mrt
DT27,Ubi,51,UBI MRT STATION,1.32997462900521,103.899226655449,408899,UBI AVENUE 2,UBI MRT STATION,mrt
DT28,Kaki Bukit,30,KAKI BUKIT MRT STATION,1.33496730163706,103.908459734312,415804,KAKI BUKIT AVENUE 1,KAKI BUKIT MRT STATION,mrt
DT29,Bedok North,651,BEDOK NORTH MRT STATION,1.33474211664093,103.91797832995,479481,BEDOK NORTH ROAD,BEDOK NORTH MRT STATION,mrt
DT30,Bedok Reservoir,371,BEDOK RESERVOIR MRT STATION,1.33660782955102,103.932234623286,469724,BEDOK NORTH AVENUE 3,BEDOK RESERVOIR MRT STATION,mrt
DT31,Tampines West,2,TAMPINES WEST MRT STATION,1.34551530560122,103.938436971222,529683,TAMPINES AVENUE 4,TAMPINES WEST MRT STATION,mrt
DT32,Tampines,20,TAMPINES MRT STATION,1.35330153265954,103.945144689278,529538,TAMPINES CENTRAL 1,TAMPINES MRT STATION,mrt
DT33,Tampines East,20,TAMPINES EAST MRT STATION,1.35619148271548,103.9546344625,529623,TAMPINES AVENUE 7,TAMPINES EAST MRT STATION,mrt
DT34,Upper Changi,690,UPPER CHANGI MRT STATION,1.34173978431351,103.961472614026,485990,UPPER CHANGI ROAD EAST,UPPER CHANGI MRT STATION,mrt
DT35,Expo,2,EXPO MRT STATION,1.33538252614957,103.962374747451,485985,EXPO DRIVE,EXPO MRT STATION,mrt
